{
    "links": {
        "self": "http://www.neowsapp.com/rest/v1/neo/3426807?api_key=iIulBulltgU6a56xZRHN4H3l9WmuAYTsLGpBGhQ2"
    },
    "id": "3426807",
    "neo_reference_id": "3426807",
    "name": "(2008 RQ24)",
    "designation": "2008 RQ24",
    "nasa_jpl_url": "http://ssd.jpl.nasa.gov/sbdb.cgi?sstr=3426807",
    "absolute_magnitude_h": 20.8,
    "estimated_diameter": {
        "kilometers": {
            "estimated_diameter_min": 0.1838886721,
            "estimated_diameter_max": 0.411187571
        },
        "meters": {
            "estimated_diameter_min": 183.8886720703,
            "estimated_diameter_max": 411.1875710413
        },
        "miles": {
            "estimated_diameter_min": 0.1142630881,
            "estimated_diameter_max": 0.2555000322
        },
        "feet": {
            "estimated_diameter_min": 603.309310875,
            "estimated_diameter_max": 1349.040630575
        }
    },
    "is_potentially_hazardous_asteroid": false,
    "close_approach_data": [
        {
            "close_approach_date": "2008-09-14",
            "close_approach_date_full": "2008-Sep-14 18:14",
            "epoch_date_close_approach": 1221416040000,
            "relative_velocity": {
                "kilometers_per_second": "3.6370867014",
                "kilometers_per_hour": "13093.5121250745",
                "miles_per_hour": "8135.7992423831"
            },
            "miss_distance": {
                "astronomical": "0.2667475986",
                "lunar": "103.7648158554",
                "kilometers": "39904872.578174982",
                "miles": "24795738.0264274716"
            },
            "orbiting_body": "Earth"
        }
    ],
    "orbital_data": {
        "orbit_id": "23",
        "orbit_determination_date": "2017-04-06 09:03:00",
        "first_observation_date": "2008-09-05",
        "last_observation_date": "2008-11-24",
        "data_arc_in_days": 80,
        "observations_used": 100,
        "orbit_uncertainty": "5",
        "minimum_orbit_intersection": ".24554",
        "jupiter_tisserand_invariant": "3.557",
        "epoch_osculation": "2459000.5",
        "eccentricity": ".427914297232356",
        "semi_major_axis": "2.172585996477901",
        "inclination": "6.043114884526786",
        "ascending_node_longitude": "201.0234480657867",
        "orbital_period": "1169.671453362721",
        "perihelion_distance": "1.242905386618202",
        "perihelion_argument": "144.741291438395",
        "aphelion_distance": "3.102266606337599",
        "perihelion_time": "2459390.432736229840",
        "mean_anomaly": "239.9869958019647",
        "mean_motion": ".3077787347592573",
        "equinox": "J2000",
        "orbit_class": {
            "orbit_class_type": "AMO",
            "orbit_class_description": "Near-Earth asteroid orbits similar to that of 1221 Amor",
            "orbit_class_range": "1.017 AU < q (perihelion) < 1.3 AU"
        }
    },
    "is_sentry_object": false
}